BEIDOU 3 (C01)          
1 36287U 10001A   21275.21139436 -.00000281  00000-0  00000+0 0  9995
2 36287   1.6607  40.8975 0002617  80.9361 105.8501  1.00275264 42928
BEIDOU 5 (C06)          
1 36828U 10036A   21274.86264407 -.00000151  00000-0  00000-0 0  9998
2 36828  54.1819 178.6120 0023217 181.1518  68.8685  1.00272753 40981
BEIDOU 6 (C04)          
1 37210U 10057A   21275.43938490 -.00000114  00000-0  00000+0 0  9999
2 37210   0.7298  37.0296 0004428 144.3203 148.1180  1.00273782 40044
BEIDOU 7 (C07)          
1 37256U 10068A   21275.46438175 -.00000157  00000-0  00000+0 0  9996
2 37256  50.6717 292.7275 0018213 189.0560 165.7579  1.00275482 39550
BEIDOU 8 (C08)          
1 37384U 11013A   21275.52849241 -.00000145  00000-0  00000+0 0  9993
2 37384  59.9248  56.8273 0018832 180.1303  71.0562  1.00277588 38430
BEIDOU 9 (C09)          
1 37763U 11038A   21275.26028280 -.00000105  00000-0  00000+0 0  9990
2 37763  54.4701 181.0688 0086590 226.8426 150.9106  1.00287956 37414
BEIDOU 10 (C10)         
1 37948U 11073A   21275.02195591 -.00000109  00000-0  00000+0 0  9992
2 37948  50.7785 292.3611 0079030 217.4363 325.1611  1.00269097 36163
BEIDOU 11 (C05)         
1 38091U 12008A   21274.97841279  .00000056  00000-0  00000-0 0  9996
2 38091   1.7788  70.0297 0003072 328.6984  23.1185  1.00271637 35231
BEIDOU 12 (C11)         
1 38250U 12018A   21274.44150791 -.00000089  00000-0  00000-0 0  9995
2 38250  56.7460   2.1160 0023074 244.7230 189.7263  1.86234338 64268
BEIDOU 13 (C12)         
1 38251U 12018B   21275.15924934 -.00000086  00000-0  00000+0 0  9999
2 38251  56.6667   1.4344 0014287 244.4803 355.5260  1.86234315 64278
BEIDOU 15 (C14)         
1 38775U 12050B   21275.31855192  .00000063  00000-0  00000+0 0  9997
2 38775  55.2576 120.3806 0012598 328.7292 215.3289  1.86231298 61658
BEIDOU 16 (C02)         
1 38953U 12059A   21274.95624531 -.00000178  00000-0  00000-0 0  9993
2 38953   1.3495  84.1276 0009226 283.5719  71.5431  1.00274552 32804
BEIDOU 17 (C31)         
1 40549U 15019A   21275.45904106 -.00000124  00000-0  00000+0 0  9991
2 40549  52.3184 315.7543 0038373 189.4149 123.5978  1.00297994 23848
BEIDOU 18 (C57)         
1 40748U 15037A   21274.78427888 -.00000088  00000-0  00000-0 0  9994
2 40748  55.9257   0.4706 0001243  40.7663 217.6175  1.86233431 42096
BEIDOU 19 (C58)         
1 40749U 15037B   21275.12190093 -.00000086  00000-0  00000+0 0  9996
2 40749  55.9293   0.4466 0003082 291.1630 329.2005  1.86232090 42091
BEIDOU 20 (C18)         
1 40938U 15053A   21275.06467528 -.00000082  00000-0  00000+0 0  9993
2 40938  51.9036 278.8399 0048170 196.1041  14.0234  1.00259576 22102
BEIDOU IGSO-6 (C13)     
1 41434U 16021A   21274.58263747 -.00000115  00000-0  00000+0 0  9991
2 41434  57.7211  55.5322 0043246 210.4838  47.9145  1.00291985 20230
BEIDOU-2 G7 (C03)       
1 41586U 16037A   21274.88438170 -.00000355  00000-0  00000-0 0  9990
2 41586   1.9247  69.1231 0007425  12.6754 357.9594  1.00268967 19555
BEIDOU-3 M1 (C19)       
1 43001U 17069A   21274.72921333  .00000057  00000-0  00000-0 0  9999
2 43001  55.4106 120.3661 0007926 295.3015   9.6607  1.86231786 26579
BEIDOU-3 M2 (C20)       
1 43002U 17069B   21275.20106938  .00000062  00000-0  00000+0 0  9995
2 43002  55.4101 120.3861 0006779 323.6208 341.0104  1.86231360 26574
BEIDOU-3 M3 (C27)       
1 43107U 18003A   21275.46120372 -.00000086  00000-0  00000+0 0  9993
2 43107  55.3709   1.4790 0003958  64.6994 220.2667  1.86232524 25342
BEIDOU-3 M4 (C28)       
1 43108U 18003B   21274.85442688 -.00000089  00000-0  00000+0 0  9996
2 43108  55.3651   1.4887 0003706 228.7534  54.5796  1.86232590 25333
BEIDOU-3 M5 (C21)       
1 43207U 18018A   21273.80520607  .00000045  00000-0  00000-0 0  9996
2 43207  55.3694 120.5201 0005095 357.9294   2.1577  1.86231757 24704
BEIDOU-3 M6 (C22)       
1 43208U 18018B   21273.87193706  .00000046  00000-0  00000-0 0  9991
2 43208  55.3688 120.5228 0005865 311.1132  48.9253  1.86231750 24707
BEIDOU-3 M7 (C29)       
1 43245U 18029A   21274.71042139 -.00000088  00000-0  00000-0 0  9998
2 43245  55.2972 359.2892 0001035 178.3297 233.5337  1.86232633 23874
BEIDOU-3 M8 (C30)       
1 43246U 18029B   21274.44659678 -.00000090  00000-0  10000-3 0  9998
2 43246  55.2951 359.3294 0002905 345.0243 296.2576  1.86233314 23856
BEIDOU IGSO-7 (C16)     
1 43539U 18057A   21274.86130094 -.00000157  00000-0  00000-0 0  9996
2 43539  55.0623 178.0049 0041156 224.0179  31.0213  1.00289488 11910
BEIDOU-3 M9 (C23)       
1 43581U 18062A   21275.13308021  .00000019  00000-0  00000+0 0  9992
2 43581  54.3639 240.9361 0006081 275.1527 316.6929  1.86231847 21618
BEIDOU-3 M10 (C24)      
1 43582U 18062B   21275.44414116  .00000018  00000-0  00000+0 0  9999
2 43582  54.3638 240.9152 0005603 332.9078 198.9475  1.86232262 21628
BEIDOU-3 M11 (C25)      
1 43602U 18067A   21274.92888447  .00000019  00000-0  00000+0 0  9992
2 43602  54.4418 239.5249 0006969 352.2243 236.1744  1.86231552 21102
BEIDOU-3 M12 (C26)      
1 43603U 18067B   21275.06790580  .00000018  00000-0  00000+0 0  9998
2 43603  54.4386 239.4874 0004522 336.6929 255.3546  1.86231636 21128
BEIDOU-3 M13 (C32)      
1 43622U 18072A   21275.12657273  .00000061  00000-0  00000+0 0  9991
2 43622  55.3351 120.0397 0004649 292.6469   8.7243  1.86231843 20635
BEIDOU-3 M14 (C33)      
1 43623U 18072B   21275.33458890  .00000064  00000-0  00000+0 0  9992
2 43623  55.3377 120.0241 0003372 334.8201 196.2502  1.86231875 20644
BEIDOU-3 M15 (C34)      
1 43647U 18078A   21274.71512625 -.00000088  00000-0  10000-3 0  9994
2 43647  55.1913 359.4708 0005165 354.8682  16.1091  1.86233092 20148
BEIDOU-3 M16 (C35)      
1 43648U 18078B   21275.25519755 -.00000086  00000-0  00000+0 0  9999
2 43648  55.1871 359.4582 0003170  14.8095 266.5241  1.86232302 20160
BEIDOU-3 G1 (C59)       
1 43683U 18085A   21275.49285605 -.00000282  00000-0  00000+0 0  9994
2 43683   0.9171 212.6986 0004824  29.9677  86.2268  1.00269461 10817
BEIDOU-3 M17 (C36)      
1 43706U 18093A   21274.45159835  .00000023  00000-0  00000-0 0  9992
2 43706  54.4458 240.8266 0011259 274.2596  85.5931  1.86231940 19514
BEIDOU-3 M18 (C37)      
1 43707U 18093B   21275.20396189  .00000019  00000-0  00000+0 0  9996
2 43707  54.4456 240.7908 0009993 293.1053 302.1292  1.86232150 19517
BEIDOU-3 IGSO-1 (C38)   
1 44204U 19023A   21274.97234752 -.00000182  00000-0  00000+0 0  9995
2 44204  56.1791  55.7631 0022550 185.1452 238.2198  1.00289248  9121
BEIDOU-2 G8             
1 44231U 19027A   21274.88830623 -.00000250  00000-0  00000-0 0  9995
2 44231   0.3122  38.1502 0007256 163.0968 273.9315  1.00270085  8838
BEIDOU-3 IGSO-2 (C39)   
1 44337U 19035A   21274.72127684 -.00000158  00000-0  00000-0 0  9997
2 44337  55.0980 174.0389 0020217 182.1233  33.5903  1.00280222  8451
BEIDOU-3 M23 (C45)      
1 44542U 19061A   21274.72891413  .00000022  00000-0  10000-3 0  9995
2 44542  54.6705 240.9073 0009251 320.4464 268.9786  1.86231503 13765
BEIDOU-3 M24 (C46)      
1 44543U 19061B   21274.32223056  .00000025  00000-0  00000+0 0  9992
2 44543  54.6692 240.8900 0006946 307.6602 280.0947  1.86231948 13754
BEIDOU-3 IGSO-3         
1 44709U 19073A   21274.61583583 -.00000130  00000-0  00000-0 0  9994
2 44709  57.6771 299.0673 0020412 185.2139 227.5614  1.00285008  7214
BEIDOU-3 M21            
1 44793U 19078A   21275.14492991 -.00000087  00000-0  10000-3 0  9998
2 44793  55.0404 359.5089 0004974   3.1963 250.2396  1.86232607 12636
BEIDOU-3 M22            
1 44794U 19078B   21275.39493550 -.00000086  00000-0  00000+0 0  9992
2 44794  55.0142 359.4975 0002991 357.0336 335.2022  1.86233144 12638
BEIDOU-3 M19            
1 44864U 19090A   21275.06498477  .00000060  00000-0  00000+0 0  9992
2 44864  55.2699 120.2674 0014535 266.6677  38.9399  1.86231944 12219
BEIDOU-3 M20            
1 44865U 19090B   21275.46331683  .00000065  00000-0  00000+0 0  9997
2 44865  55.2730 120.2840 0012979 283.2944  19.2814  1.86231902 12198
BEIDOU-3 G2             
1 45344U 20017A   21274.48660351 -.00000144  00000-0  00000-0 0  9999
2 45344   2.3020 340.3434 0003253 176.6112 108.6945  1.00271753  6024
BEIDOU-3 G3             
1 45807U 20040A   21274.97008858 -.00000359  00000-0  00000-0 0  9999
2 45807   2.0413 299.0346 0010189 336.6327 195.0616  1.00271986  4846
